[{"OBJECT_NAME":"POLYTECH UNIVERSE-5","OBJECT_ID":"2024-199L","EPOCH":"2026-03-09T21:29:23.803296","MEAN_MOTION":15.52287921,"ECCENTRICITY":0.00049026,"INCLINATION":97.3133,"RA_OF_ASC_NODE":304.2615,"ARG_OF_PERICENTER":279.4444,"MEAN_ANOMALY":80.6254,"EPHEMERIS_TYPE":0,"CLASSIFICATION_TYPE":"U","NORAD_CAT_ID":61745,"ELEMENT_SET_NO":999,"REV_AT_EPOCH":12223,"BSTAR":0.00078869438,"MEAN_MOTION_DOT":0.00048079,"MEAN_MOTION_DDOT":0},{"OBJECT_NAME":"STARLINK-36673","OBJECT_ID":"2026-022N","EPOCH":"2026-03-09T22:00:01.999584","MEAN_MOTION":15.68090398,"ECCENTRICITY":0.00015368,"INCLINATION":97.2847,"RA_OF_ASC_NODE":102.9137,"ARG_OF_PERICENTER":67.9373,"MEAN_ANOMALY":350.2216,"EPHEMERIS_TYPE":0,"CLASSIFICATION_TYPE":"U","NORAD_CAT_ID":67660,"ELEMENT_SET_NO":999,"REV_AT_EPOCH":608,"BSTAR":-0.019532863,"MEAN_MOTION_DOT":-0.0191887,"MEAN_MOTION_DDOT":0}]
